*******************************************************************************
Ephemeris / WWW_USER Mon Mar 10 14:33:53 2025 Pasadena, USA      / Horizons    
*******************************************************************************
Target body name: (2018 KH3)                      {source: JPL#10}
Center body name: Earth (399)                     {source: DE441}
Center-site name: Mauna Kea
*******************************************************************************
Start time      : A.D. 2018-Oct-10 04:12:00.0000 UT      
Stop  time      : A.D. 2018-Oct-10 16:05:00.0000 UT      
Step-size       : 1 minutes
*******************************************************************************
Target pole/equ : undefined
Target radii    : undefined                                                    
Center geodetic : 204.5278, 19.8260847, 4.21024   {E-lon(deg),Lat(deg),Alt(km)}
Center cylindric: 204.5278, 6006.35451, 2151.0229 {E-lon(deg),Dxy(km),Dz(km)}
Center pole/equ : ITRF93                          {East-longitude positive}
Center radii    : 6378.137, 6378.137, 6356.752 km {Equator_a, b, pole_c}       
Target primary  : Sun
Vis. interferer : MOON (R_eq= 1737.400) km        {source: DE441}
Rel. light bend : Sun                             {source: DE441}
Rel. lght bnd GM: 1.3271E+11 km^3/s^2                                          
Small-body perts: Yes                             {source: SB441-N16}
Atmos refraction: NO (AIRLESS)
RA format       : HMS
Time format     : CAL 
Calendar mode   : Mixed Julian/Gregorian
RTS-only print  : NO       
EOP file        : eop.250307.p250603                                           
EOP coverage    : DATA-BASED 1962-JAN-20 TO 2025-MAR-07. PREDICTS-> 2025-JUN-02
Units conversion: 1 au= 149597870.700 km, c= 299792.458 km/s, 1 day= 86400.0 s 
Table cut-offs 1: Elevation (-90.0deg=NO ),Airmass (>38.000=NO), Daylight (YES)
Table cut-offs 2: Solar elongation (  0.0,180.0=NO ),Local Hour Angle( 0.0=NO )
Table cut-offs 3: RA/DEC angular rate (     0.0=NO )                           
*******************************************************************************
Initial IAU76/J2000 heliocentric ecliptic osculating elements (au, days, deg.):
  EPOCH=  2458288.5 ! 2018-Jun-19.00 (TDB)         Residual RMS= .22282        
   EC= .960925581819226    QR= 3.698978437965829   TP= 2457875.4618278281      
   OM= 293.0370088641419   W=  320.1514802298502   IN= 46.86534913190896       
  Equivalent ICRF heliocentric cartesian coordinates (au, au/d):
   X= 3.123713088662113E+00  Y=-4.022617727101489E+00  Z=-9.776572180429732E-02
  VX= 7.160289219203867E-03 VY=-1.601856640773144E-03 VZ= 7.695430476273978E-03
Asteroid physical parameters (km, seconds, rotational period in hours):        
   GM= n.a.                RAD= n.a.               ROTPER= n.a.                
   H= 13.69                G= .150                 B-V= n.a.                   
                           ALBEDO= n.a.            STYP= n.a.                  
*******************************************************************************
 Date__(UT)__HR:MN     R.A._________(ICRF)_________DEC
******************************************************
$$SOE
 2018-Oct-10 06:15     20 14 27.583794 +07 04 18.24595
 2018-Oct-10 06:16     20 14 27.585036 +07 04 18.21022
 2018-Oct-10 06:17     20 14 27.586278 +07 04 18.17449
 2018-Oct-10 06:18     20 14 27.587522 +07 04 18.13875
 2018-Oct-10 06:19     20 14 27.588766 +07 04 18.10301
 2018-Oct-10 06:20     20 14 27.590011 +07 04 18.06727
 2018-Oct-10 06:21     20 14 27.591257 +07 04 18.03153
 2018-Oct-10 06:22     20 14 27.592504 +07 04 17.99578
 2018-Oct-10 06:23     20 14 27.593752 +07 04 17.96003
 2018-Oct-10 06:24     20 14 27.595001 +07 04 17.92427
 2018-Oct-10 06:25     20 14 27.596250 +07 04 17.88852
 2018-Oct-10 06:26     20 14 27.597500 +07 04 17.85276
 2018-Oct-10 06:27     20 14 27.598752 +07 04 17.81699
 2018-Oct-10 06:28     20 14 27.600004 +07 04 17.78123
 2018-Oct-10 06:29     20 14 27.601257 +07 04 17.74546
 2018-Oct-10 06:30     20 14 27.602511 +07 04 17.70969
 2018-Oct-10 06:31     20 14 27.603766 +07 04 17.67391
 2018-Oct-10 06:32     20 14 27.605021 +07 04 17.63813
 2018-Oct-10 06:33     20 14 27.606278 +07 04 17.60235
 2018-Oct-10 06:34     20 14 27.607536 +07 04 17.56657
 2018-Oct-10 06:35     20 14 27.608794 +07 04 17.53078
 2018-Oct-10 06:36     20 14 27.610054 +07 04 17.49500
 2018-Oct-10 06:37     20 14 27.611315 +07 04 17.45920
 2018-Oct-10 06:38     20 14 27.612576 +07 04 17.42341
 2018-Oct-10 06:39     20 14 27.613839 +07 04 17.38761
 2018-Oct-10 06:40     20 14 27.615103 +07 04 17.35181
 2018-Oct-10 06:41     20 14 27.616367 +07 04 17.31600
 2018-Oct-10 06:42     20 14 27.617633 +07 04 17.28020
 2018-Oct-10 06:43     20 14 27.618899 +07 04 17.24439
 2018-Oct-10 06:44     20 14 27.620167 +07 04 17.20858
 2018-Oct-10 06:45     20 14 27.621436 +07 04 17.17276
 2018-Oct-10 06:46     20 14 27.622706 +07 04 17.13694
 2018-Oct-10 06:47     20 14 27.623976 +07 04 17.10112
 2018-Oct-10 06:48     20 14 27.625248 +07 04 17.06530
 2018-Oct-10 06:49     20 14 27.626521 +07 04 17.02947
 2018-Oct-10 06:50     20 14 27.627795 +07 04 16.99364
 2018-Oct-10 06:51     20 14 27.629070 +07 04 16.95781
 2018-Oct-10 06:52     20 14 27.630347 +07 04 16.92197
 2018-Oct-10 06:53     20 14 27.631624 +07 04 16.88614
 2018-Oct-10 06:54     20 14 27.632903 +07 04 16.85029
 2018-Oct-10 06:55     20 14 27.634182 +07 04 16.81445
 2018-Oct-10 06:56     20 14 27.635463 +07 04 16.77860
 2018-Oct-10 06:57     20 14 27.636745 +07 04 16.74275
 2018-Oct-10 06:58     20 14 27.638028 +07 04 16.70690
 2018-Oct-10 06:59     20 14 27.639312 +07 04 16.67105
 2018-Oct-10 07:00     20 14 27.640597 +07 04 16.63519
 2018-Oct-10 07:01     20 14 27.641884 +07 04 16.59933
 2018-Oct-10 07:02     20 14 27.643171 +07 04 16.56347
 2018-Oct-10 07:03     20 14 27.644460 +07 04 16.52760
 2018-Oct-10 07:04     20 14 27.645750 +07 04 16.49173
 2018-Oct-10 07:05     20 14 27.647042 +07 04 16.45586
 2018-Oct-10 07:06     20 14 27.648334 +07 04 16.41999
 2018-Oct-10 07:07     20 14 27.649628 +07 04 16.38411
 2018-Oct-10 07:08     20 14 27.650923 +07 04 16.34823
 2018-Oct-10 07:09     20 14 27.652219 +07 04 16.31235
 2018-Oct-10 07:10     20 14 27.653516 +07 04 16.27646
 2018-Oct-10 07:11     20 14 27.654815 +07 04 16.24057
 2018-Oct-10 07:12     20 14 27.656115 +07 04 16.20468
 2018-Oct-10 07:13     20 14 27.657416 +07 04 16.16879
 2018-Oct-10 07:14     20 14 27.658718 +07 04 16.13289
 2018-Oct-10 07:15     20 14 27.660022 +07 04 16.09700
 2018-Oct-10 07:16     20 14 27.661327 +07 04 16.06109
 2018-Oct-10 07:17     20 14 27.662633 +07 04 16.02519
 2018-Oct-10 07:18     20 14 27.663941 +07 04 15.98928
 2018-Oct-10 07:19     20 14 27.665250 +07 04 15.95338
 2018-Oct-10 07:20     20 14 27.666560 +07 04 15.91746
 2018-Oct-10 07:21     20 14 27.667872 +07 04 15.88155
 2018-Oct-10 07:22     20 14 27.669184 +07 04 15.84563
 2018-Oct-10 07:23     20 14 27.670499 +07 04 15.80971
 2018-Oct-10 07:24     20 14 27.671814 +07 04 15.77379
 2018-Oct-10 07:25     20 14 27.673131 +07 04 15.73787
 2018-Oct-10 07:26     20 14 27.674449 +07 04 15.70194
 2018-Oct-10 07:27     20 14 27.675769 +07 04 15.66601
 2018-Oct-10 07:28     20 14 27.677090 +07 04 15.63008
 2018-Oct-10 07:29     20 14 27.678413 +07 04 15.59414
 2018-Oct-10 07:30     20 14 27.679736 +07 04 15.55820
 2018-Oct-10 07:31     20 14 27.681062 +07 04 15.52226
 2018-Oct-10 07:32     20 14 27.682388 +07 04 15.48632
 2018-Oct-10 07:33     20 14 27.683716 +07 04 15.45037
 2018-Oct-10 07:34     20 14 27.685046 +07 04 15.41443
 2018-Oct-10 07:35     20 14 27.686377 +07 04 15.37848
 2018-Oct-10 07:36     20 14 27.687709 +07 04 15.34252
 2018-Oct-10 07:37     20 14 27.689043 +07 04 15.30657
 2018-Oct-10 07:38     20 14 27.690378 +07 04 15.27061
 2018-Oct-10 07:39     20 14 27.691715 +07 04 15.23465
 2018-Oct-10 07:40     20 14 27.693053 +07 04 15.19869
 2018-Oct-10 07:41     20 14 27.694393 +07 04 15.16272
 2018-Oct-10 07:42     20 14 27.695734 +07 04 15.12675
 2018-Oct-10 07:43     20 14 27.697076 +07 04 15.09078
 2018-Oct-10 07:44     20 14 27.698420 +07 04 15.05481
 2018-Oct-10 07:45     20 14 27.699766 +07 04 15.01884
 2018-Oct-10 07:46     20 14 27.701113 +07 04 14.98286
 2018-Oct-10 07:47     20 14 27.702462 +07 04 14.94688
 2018-Oct-10 07:48     20 14 27.703812 +07 04 14.91090
 2018-Oct-10 07:49     20 14 27.705164 +07 04 14.87491
 2018-Oct-10 07:50     20 14 27.706517 +07 04 14.83893
 2018-Oct-10 07:51     20 14 27.707872 +07 04 14.80294
 2018-Oct-10 07:52     20 14 27.709228 +07 04 14.76694
 2018-Oct-10 07:53     20 14 27.710586 +07 04 14.73095
 2018-Oct-10 07:54     20 14 27.711945 +07 04 14.69495
 2018-Oct-10 07:55     20 14 27.713306 +07 04 14.65896
 2018-Oct-10 07:56     20 14 27.714669 +07 04 14.62296
 2018-Oct-10 07:57     20 14 27.716033 +07 04 14.58695
 2018-Oct-10 07:58     20 14 27.717399 +07 04 14.55095
 2018-Oct-10 07:59     20 14 27.718766 +07 04 14.51494
 2018-Oct-10 08:00     20 14 27.720135 +07 04 14.47893
 2018-Oct-10 08:01     20 14 27.721506 +07 04 14.44292
 2018-Oct-10 08:02     20 14 27.722878 +07 04 14.40690
 2018-Oct-10 08:03     20 14 27.724252 +07 04 14.37088
 2018-Oct-10 08:04     20 14 27.725627 +07 04 14.33487
 2018-Oct-10 08:05     20 14 27.727004 +07 04 14.29884
 2018-Oct-10 08:06     20 14 27.728383 +07 04 14.26282
 2018-Oct-10 08:07     20 14 27.729763 +07 04 14.22679
 2018-Oct-10 08:08     20 14 27.731145 +07 04 14.19077
 2018-Oct-10 08:09     20 14 27.732529 +07 04 14.15474
 2018-Oct-10 08:10     20 14 27.733915 +07 04 14.11870
 2018-Oct-10 08:11     20 14 27.735302 +07 04 14.08267
 2018-Oct-10 08:12     20 14 27.736690 +07 04 14.04663
 2018-Oct-10 08:13     20 14 27.738081 +07 04 14.01059
 2018-Oct-10 08:14     20 14 27.739473 +07 04 13.97455
 2018-Oct-10 08:15     20 14 27.740867 +07 04 13.93851
 2018-Oct-10 08:16     20 14 27.742262 +07 04 13.90247
 2018-Oct-10 08:17     20 14 27.743660 +07 04 13.86642
